[{"OBJECT_NAME":"STARLINK-6369","OBJECT_ID":"2023-099AY","EPOCH":"2026-03-09T22:00:01.999584","MEAN_MOTION":15.11990276,"ECCENTRICITY":0.00024259,"INCLINATION":43.0006,"RA_OF_ASC_NODE":221.4396,"ARG_OF_PERICENTER":272.2274,"MEAN_ANOMALY":92.7048,"EPHEMERIS_TYPE":0,"CLASSIFICATION_TYPE":"U","NORAD_CAT_ID":57374,"ELEMENT_SET_NO":999,"REV_AT_EPOCH":562,"BSTAR":0.0064958778,"MEAN_MOTION_DOT":0.00115097,"MEAN_MOTION_DDOT":0},{"OBJECT_NAME":"SL-8 R\/B","OBJECT_ID":"1994-061B","EPOCH":"2026-03-09T22:11:39.346944","MEAN_MOTION":14.28263907,"ECCENTRICITY":0.05977746,"INCLINATION":82.9619,"RA_OF_ASC_NODE":21.337,"ARG_OF_PERICENTER":318.8014,"MEAN_ANOMALY":36.9463,"EPHEMERIS_TYPE":0,"CLASSIFICATION_TYPE":"U","NORAD_CAT_ID":23279,"ELEMENT_SET_NO":999,"REV_AT_EPOCH":57143,"BSTAR":0.00083232798,"MEAN_MOTION_DOT":0.00016203,"MEAN_MOTION_DDOT":0}]
